{
  "type": "FeatureCollection",
  "features": [
    {
      "type": "Feature",
      "properties": {
        "OBJECT_NAME": "IRIDIUM 33 DEB",
        "OBJECT_ID": "1997-051DZ",
        "EPOCH": "2025-11-30T02:58:33.720960",
        "MEAN_MOTION": 14.48910321,
        "ECCENTRICITY": 0.0024901,
        "INCLINATION": 86.2846,
        "RA_OF_ASC_NODE": 355.3733,
        "ARG_OF_PERICENTER": 267.0497,
        "MEAN_ANOMALY": 164.538,
        "EPHEMERIS_TYPE": 0,
        "CLASSIFICATION_TYPE": "U",
        "NORAD_CAT_ID": 34146,
        "ELEMENT_SET_NO": 999,
        "REV_AT_EPOCH": 87924,
        "BSTAR": 0.0010707,
        "MEAN_MOTION_DOT": 4.086e-05,
        "MEAN_MOTION_DDOT": 0,
        "norad_id": 34146,
        "name": "IRIDIUM 33 DEB",
        "group": "iridium-33-debris",
        "longitude_deg": NaN,
        "latitude_deg": NaN,
        "alt_km": NaN,
        "orbit_class": "HEO",
        "timestamp": "2025-11-30T09:33:02.605876+00:00"
      },
      "geometry": {
        "type": "Point",
        "coordinates": [
          NaN,
          NaN
        ]
      }
    },
    {
      "type": "Feature",
      "properties": {
        "OBJECT_NAME": "IRIDIUM 33 DEB",
        "OBJECT_ID": "1997-051EN",
        "EPOCH": "2025-11-29T17:24:29.623104",
        "MEAN_MOTION": 14.38441021,
        "ECCENTRICITY": 0.0026765,
        "INCLINATION": 86.3514,
        "RA_OF_ASC_NODE": 53.789,
        "ARG_OF_PERICENTER": 333.2318,
        "MEAN_ANOMALY": 26.7497,
        "EPHEMERIS_TYPE": 0,
        "CLASSIFICATION_TYPE": "U",
        "NORAD_CAT_ID": 34159,
        "ELEMENT_SET_NO": 999,
        "REV_AT_EPOCH": 87772,
        "BSTAR": 0.00041408,
        "MEAN_MOTION_DOT": 1.287e-05,
        "MEAN_MOTION_DDOT": 0,
        "norad_id": 34159,
        "name": "IRIDIUM 33 DEB",
        "group": "iridium-33-debris",
        "longitude_deg": NaN,
        "latitude_deg": NaN,
        "alt_km": NaN,
        "orbit_class": "HEO",
        "timestamp": "2025-11-30T09:33:02.605883+00:00"
      },
      "geometry": {
        "type": "Point",
        "coordinates": [
          NaN,
          NaN
        ]
      }
    },
    {
      "type": "Feature",
      "properties": {
        "OBJECT_NAME": "IRIDIUM 33 DEB",
        "OBJECT_ID": "1997-051ES",
        "EPOCH": "2025-11-30T01:33:34.590816",
        "MEAN_MOTION": 14.4534184,
        "ECCENTRICITY": 0.0021492,
        "INCLINATION": 86.3286,
        "RA_OF_ASC_NODE": 8.3067,
        "ARG_OF_PERICENTER": 175.5139,
        "MEAN_ANOMALY": 216.7371,
        "EPHEMERIS_TYPE": 0,
        "CLASSIFICATION_TYPE": "U",
        "NORAD_CAT_ID": 34350,
        "ELEMENT_SET_NO": 999,
        "REV_AT_EPOCH": 88110,
        "BSTAR": 0.00035583,
        "MEAN_MOTION_DOT": 1.273e-05,
        "MEAN_MOTION_DDOT": 0,
        "norad_id": 34350,
        "name": "IRIDIUM 33 DEB",
        "group": "iridium-33-debris",
        "longitude_deg": NaN,
        "latitude_deg": NaN,
        "alt_km": NaN,
        "orbit_class": "HEO",
        "timestamp": "2025-11-30T09:33:02.605888+00:00"
      },
      "geometry": {
        "type": "Point",
        "coordinates": [
          NaN,
          NaN
        ]
      }
    },
    {
      "type": "Feature",
      "properties": {
        "OBJECT_NAME": "IRIDIUM 33 DEB",
        "OBJECT_ID": "1997-051FJ",
        "EPOCH": "2025-11-29T18:02:30.964128",
        "MEAN_MOTION": 14.53861698,
        "ECCENTRICITY": 0.0021372,
        "INCLINATION": 86.3704,
        "RA_OF_ASC_NODE": 54.9599,
        "ARG_OF_PERICENTER": 181.7023,
        "MEAN_ANOMALY": 308.2858,
        "EPHEMERIS_TYPE": 0,
        "CLASSIFICATION_TYPE": "U",
        "NORAD_CAT_ID": 34366,
        "ELEMENT_SET_NO": 999,
        "REV_AT_EPOCH": 87993,
        "BSTAR": 0.0011885,
        "MEAN_MOTION_DOT": 5.029e-05,
        "MEAN_MOTION_DDOT": 0,
        "norad_id": 34366,
        "name": "IRIDIUM 33 DEB",
        "group": "iridium-33-debris",
        "longitude_deg": NaN,
        "latitude_deg": NaN,
        "alt_km": NaN,
        "orbit_class": "HEO",
        "timestamp": "2025-11-30T09:33:02.605896+00:00"
      },
      "geometry": {
        "type": "Point",
        "coordinates": [
          NaN,
          NaN
        ]
      }
    },
    {
      "type": "Feature",
      "properties": {
        "OBJECT_NAME": "IRIDIUM 33 DEB",
        "OBJECT_ID": "1997-051FT",
        "EPOCH": "2025-11-30T01:53:16.418400",
        "MEAN_MOTION": 14.17957931,
        "ECCENTRICITY": 0.0102133,
        "INCLINATION": 86.4335,
        "RA_OF_ASC_NODE": 187.7984,
        "ARG_OF_PERICENTER": 166.6584,
        "MEAN_ANOMALY": 346.4565,
        "EPHEMERIS_TYPE": 0,
        "CLASSIFICATION_TYPE": "U",
        "NORAD_CAT_ID": 34375,
        "ELEMENT_SET_NO": 999,
        "REV_AT_EPOCH": 86532,
        "BSTAR": 0.00044563,
        "MEAN_MOTION_DOT": 9.79e-06,
        "MEAN_MOTION_DDOT": 0,
        "norad_id": 34375,
        "name": "IRIDIUM 33 DEB",
        "group": "iridium-33-debris",
        "longitude_deg": NaN,
        "latitude_deg": NaN,
        "alt_km": NaN,
        "orbit_class": "HEO",
        "timestamp": "2025-11-30T09:33:02.605902+00:00"
      },
      "geometry": {
        "type": "Point",
        "coordinates": [
          NaN,
          NaN
        ]
      }
    },
    {
      "type": "Feature",
      "properties": {
        "OBJECT_NAME": "IRIDIUM 33 DEB",
        "OBJECT_ID": "1997-051FU",
        "EPOCH": "2025-11-30T02:09:02.391264",
        "MEAN_MOTION": 14.62284985,
        "ECCENTRICITY": 0.0025733,
        "INCLINATION": 86.3002,
        "RA_OF_ASC_NODE": 12.2253,
        "ARG_OF_PERICENTER": 210.2768,
        "MEAN_ANOMALY": 149.6958,
        "EPHEMERIS_TYPE": 0,
        "CLASSIFICATION_TYPE": "U",
        "NORAD_CAT_ID": 34376,
        "ELEMENT_SET_NO": 999,
        "REV_AT_EPOCH": 87822,
        "BSTAR": 0.0016392,
        "MEAN_MOTION_DOT": 8.331e-05,
        "MEAN_MOTION_DDOT": 0,
        "norad_id": 34376,
        "name": "IRIDIUM 33 DEB",
        "group": "iridium-33-debris",
        "longitude_deg": NaN,
        "latitude_deg": NaN,
        "alt_km": NaN,
        "orbit_class": "HEO",
        "timestamp": "2025-11-30T09:33:02.605909+00:00"
      },
      "geometry": {
        "type": "Point",
        "coordinates": [
          NaN,
          NaN
        ]
      }
    },
    {
      "type": "Feature",
      "properties": {
        "OBJECT_NAME": "IRIDIUM 33 DEB",
        "OBJECT_ID": "1997-051GB",
        "EPOCH": "2025-11-29T14:44:03.470784",
        "MEAN_MOTION": 14.948863,
        "ECCENTRICITY": 0.0012491,
        "INCLINATION": 86.3949,
        "RA_OF_ASC_NODE": 18.078,
        "ARG_OF_PERICENTER": 155.5104,
        "MEAN_ANOMALY": 325.6973,
        "EPHEMERIS_TYPE": 0,
        "CLASSIFICATION_TYPE": "U",
        "NORAD_CAT_ID": 34486,
        "ELEMENT_SET_NO": 999,
        "REV_AT_EPOCH": 88790,
        "BSTAR": 0.0020978,
        "MEAN_MOTION_DOT": 0.00022971,
        "MEAN_MOTION_DDOT": 0,
        "norad_id": 34486,
        "name": "IRIDIUM 33 DEB",
        "group": "iridium-33-debris",
        "longitude_deg": NaN,
        "latitude_deg": NaN,
        "alt_km": NaN,
        "orbit_class": "HEO",
        "timestamp": "2025-11-30T09:33:02.605915+00:00"
      },
      "geometry": {
        "type": "Point",
        "coordinates": [
          NaN,
          NaN
        ]
      }
    },
    {
      "type": "Feature",
      "properties": {
        "OBJECT_NAME": "IRIDIUM 33 DEB",
        "OBJECT_ID": "1997-051GC",
        "EPOCH": "2025-11-30T02:09:57.915360",
        "MEAN_MOTION": 14.43189929,
        "ECCENTRICITY": 0.0031519,
        "INCLINATION": 86.3447,
        "RA_OF_ASC_NODE": 17.8227,
        "ARG_OF_PERICENTER": 168.7492,
        "MEAN_ANOMALY": 220.5736,
        "EPHEMERIS_TYPE": 0,
        "CLASSIFICATION_TYPE": "U",
        "NORAD_CAT_ID": 34487,
        "ELEMENT_SET_NO": 999,
        "REV_AT_EPOCH": 88066,
        "BSTAR": 0.00022878,
        "MEAN_MOTION_DOT": 7.93e-06,
        "MEAN_MOTION_DDOT": 0,
        "norad_id": 34487,
        "name": "IRIDIUM 33 DEB",
        "group": "iridium-33-debris",
        "longitude_deg": NaN,
        "latitude_deg": NaN,
        "alt_km": NaN,
        "orbit_class": "HEO",
        "timestamp": "2025-11-30T09:33:02.605923+00:00"
      },
      "geometry": {
        "type": "Point",
        "coordinates": [
          NaN,
          NaN
        ]
      }
    },
    {
      "type": "Feature",
      "properties": {
        "OBJECT_NAME": "IRIDIUM 33 DEB",
        "OBJECT_ID": "1997-051GD",
        "EPOCH": "2025-11-29T22:24:42.028992",
        "MEAN_MOTION": 15.2515922,
        "ECCENTRICITY": 0.0016147,
        "INCLINATION": 86.3244,
        "RA_OF_ASC_NODE": 312.1361,
        "ARG_OF_PERICENTER": 71.7286,
        "MEAN_ANOMALY": 288.5715,
        "EPHEMERIS_TYPE": 0,
        "CLASSIFICATION_TYPE": "U",
        "NORAD_CAT_ID": 34488,
        "ELEMENT_SET_NO": 999,
        "REV_AT_EPOCH": 89044,
        "BSTAR": 0.0046131,
        "MEAN_MOTION_DOT": 0.00117681,
        "MEAN_MOTION_DDOT": 0,
        "norad_id": 34488,
        "name": "IRIDIUM 33 DEB",
        "group": "iridium-33-debris",
        "longitude_deg": NaN,
        "latitude_deg": NaN,
        "alt_km": NaN,
        "orbit_class": "HEO",
        "timestamp": "2025-11-30T09:33:02.605929+00:00"
      },
      "geometry": {
        "type": "Point",
        "coordinates": [
          NaN,
          NaN
        ]
      }
    }
  ]
}